IRIS-C2                 
1 58269U 23174P   25148.80171110  .00119407  00000+0  11268-2 0  9997
2 58269  97.4089 234.3019 0004005 125.0855 235.0781 15.66652327 86841
FLOCK 4Q-1              
1 58270U 23174Q   25147.77813394  .00013017  00000+0  40267-3 0  9993
2 58270  97.4191 227.0544 0010046 108.1185 252.1152 15.33572818 86278
FLOCK 4Q-16             
1 58271U 23174R   25148.16692522  .00012305  00000+0  39120-3 0  9991
2 58271  97.4152 226.8860 0010400 107.3151 252.9229 15.32709243 86313
TIGER-6                 
1 58272U 23174S   25148.21432391  .00024095  00000+0  61635-3 0  9999
2 58272  97.4184 228.4493 0007232  98.4811 261.7254 15.39400325 86414
FLOCK 4Q-11             
1 58273U 23174T   25148.48620445  .00013550  00000+0  42829-3 0  9996
2 58273  97.4186 227.4301 0009987 105.5518 254.6827 15.32876166 86361
FLOCK 4Q-36             
1 58274U 23174U   25148.16943734  .00017039  00000+0  49475-3 0  9991
2 58274  97.4184 228.0281 0009526 103.6182 256.6123 15.35518377 86371
FLOCK 4Q-12             
1 58275U 23174V   25148.18658844  .00015972  00000+0  46006-3 0  9990
2 58275  97.4152 228.0071 0009164 101.6627 258.5646 15.35789199 86399
GENMAT-1                
1 58276U 23174W   25147.96559602  .00007669  00000+0  30379-3 0  9998
2 58276  97.4059 223.0172 0009978 110.7848 249.4460 15.25649809 86072
TIGER-5                 
1 58277U 23174X   25148.45934214  .00026000  00000+0  62823-3 0  9999
2 58277  97.4151 228.9486 0007134  96.6866 263.5192 15.41122209 86473
FLOCK 4Q-28             
1 58280U 23174AA  25147.18010307  .00011753  00000+0  35364-3 0  9999
2 58280  97.4197 226.7923 0009539 106.7767 253.4523 15.34483835 86207
AETHER-1                
1 58281U 23174AB  25148.48817899  .00022608  00000+0  70842-3 0  9996
2 58281  97.4189 227.6138 0009235 101.2129 259.0151 15.33048606 86371
FLOCK 4Q-27             
1 58282U 23174AC  25147.96054466  .00013039  00000+0  39057-3 0  9993
2 58282  97.4141 227.3256 0008454 102.0813 258.1378 15.34608239 86331
FLOCK 4Q-17             
1 58283U 23174AD  25148.20039046  .00017477  00000+0  46318-3 0  9997
2 58283  97.4133 228.3278 0008486  96.7029 263.5182 15.38366954 86423
FLOCK 4Q-26             
1 58284U 23174AE  25148.18796172  .00014719  00000+0  42575-3 0  9992
2 58284  97.4186 228.1960 0009911 102.0275 258.2080 15.35669808 86380
FLOCK 4Q-31             
1 58285U 23174AF  25148.19953228  .00015672  00000+0  46946-3 0  9996
2 58285  97.4226 228.0579 0010412 102.6634 257.5773 15.34545934 86365
FLOCK 4Q-30             
1 58286U 23174AG  25148.47459309  .00014805  00000+0  44036-3 0  9994
2 58286  97.4222 228.4508 0010311  99.4869 260.7540 15.34783423 86410
PICO-01B009             
1 58287U 23174AH  25148.81988259  .00020934  00000+0  55362-3 0  9998
2 58287  97.4123 228.5930 0008094  89.6627 270.5545 15.38399171 86498
ICEYE-X31               
1 58288U 23174AJ  25148.84637361  .00009883  00000+0  44169-3 0  9990
2 58288  97.4172 222.6907 0002884 211.2707 148.8358 15.21525719 86080
FALCONSAT-10            
1 58291U 23174AM  25148.80059909  .00004686  00000+0  20200-3 0  9992
2 58291  97.4185 224.0909 0011016 101.3149 258.9326 15.22999015 86175
UMBRA-08                
1 58292U 23174AN  25148.24721755  .00044521  00000+0  14130-2 0  9992
2 58292  97.4090 223.4710 0000725 186.5874 173.5359 15.32534634 86103
ICEYE-X34               
1 58294U 23174AQ  25148.47713960  .00017641  00000+0  55983-3 0  9993
2 58294  97.4194 227.3088 0009262  98.7622 261.4669 15.32695767 86354
SPACEVAN-001            
1 58295U 23174AR  25148.49057516  .00013556  00000+0  23023-3 0  9995
2 58295  97.4203 226.9663 0010217  91.7309 268.5114 15.51533445 86333
PELICAN-1               
1 58296U 23174AS  25148.16581067  .00038044  00000+0  10507-2 0  9994
2 58296  97.4154 230.5478 0009398 256.9214 103.0981 15.36920331 86389
UMBRA-07                
1 58297U 23174AT  25147.92030980  .00008831  00000+0  69694-3 0  9994
2 58297  97.4142 214.6639 0001647  49.1040 311.0327 15.00934273 85483
SPIP                    
1 58298U 23174AU  25148.87581537  .00005234  00000+0  22454-3 0  9996
2 58298  97.4209 224.4198 0012108 101.7416 258.5180 15.23097336 86199
AETHER-2                
1 58299U 23174AV  25148.48630956  .00005556  00000+0  20338-3 0  9990
2 58299  97.4200 227.1591 0009821  83.6514 276.5844 15.28406124 86352
ION SCV-013             
1 58300U 23174AW  25148.85504345  .00000450  00000+0  72420-4 0  9994
2 58300  97.6763 207.6316 0011589 160.3707 199.7952 14.75916690 84067
IMPULSE-1 MIRA          
1 58301U 23174AX  25148.47690860  .00010364  00000+0  37367-3 0  9996
2 58301  97.5522 223.6363 0092505  43.7534 317.0985 15.24687956 86089
ICEYE-X35               
1 58302U 23174AY  25148.86048109  .00015793  00000+0  56641-3 0  9990
2 58302  97.4145 225.1032 0016185 135.3298 224.9248 15.28669365 86250
FLOCK 4Q-25             
1 58303U 23174AZ  25148.17407728  .00016660  00000+0  45981-3 0  9990
2 58303  97.4133 227.8674 0008670  90.7324 269.4914 15.37119557 86395
FLOCK 4Q-29             
1 58304U 23174BA  25148.09314711  .00013781  00000+0  41259-3 0  9996
2 58304  97.4221 227.8825 0010134  92.6257 267.6146 15.34596598 86349
FLOCK 4Q-22             
1 58306U 23174BC  25148.17659819  .00016308  00000+0  46872-3 0  9992
2 58306  97.4131 227.7510 0009395  91.3259 268.9061 15.35849806 86384
FLOCK 4Q-23             
1 58307U 23174BD  25148.17465113  .00016268  00000+0  45875-3 0  9992
2 58307  97.4224 228.3573 0010043  93.3848 266.8544 15.36441833 86384
FLOCK 4Q-33             
1 58308U 23174BE  25147.78732215  .00013977  00000+0  40697-3 0  9990
2 58308  97.4151 227.4658 0010126  90.3795 269.8608 15.35470039 86325
FLOCK 4Q-35             
1 58309U 23174BF  25148.21178121  .00015335  00000+0  44605-3 0  9993
2 58309  97.4183 228.1397 0010682  95.3172 264.9291 15.35476484 86380
FLOCK 4Q-14             
1 58311U 23174BH  25148.47687741  .00074852  00000+0  18969-2 0  9999
2 58311  97.4126 227.4989 0006685 112.4740 247.7214 15.39418126 86397
FLOCK 4Q-20             
1 58313U 23174BK  25147.78767037  .00017885  00000+0  47497-3 0  9993
2 58313  97.4205 228.6210 0010366  91.0751 269.1681 15.38281142 86371
FLOCK 4Q-6              
1 58315U 23174BM  25148.19751589  .00092310  00000+0  20841-2 0  9995
2 58315  97.4102 227.5458 0007871 124.8307 235.3682 15.42833167 86371
FLOCK 4Q-34             
1 58316U 23174BN  25148.18826615  .00016048  00000+0  45336-3 0  9999
2 58316  97.4158 228.0483 0010365  90.2041 270.0391 15.36385152 86394
FLOCK 4Q-7              
1 58318U 23174BQ  25148.47946353  .00013848  00000+0  41559-3 0  9993
2 58318  97.4210 228.1973 0010657  86.9466 273.2997 15.34514069 86405
FLOCK 4Q-15             
1 58319U 23174BR  25148.48867734  .00015030  00000+0  41498-3 0  9997
2 58319  97.4198 229.0367 0010017  82.8790 277.3593 15.37116817 86468
FLOCK 4Q-2              
1 58320U 23174BS  25148.84272284  .00012855  00000+0  40671-3 0  9993
2 58320  97.4150 227.7576 0010153  86.4910 273.7493 15.32855772 86431
PROTOMETHEE             
1 58321U 23174BT  25148.80039114  .00006081  00000+0  24252-3 0  9994
2 58321  97.4131 224.8385 0010331  90.3536 269.8886 15.25512759 86252
FLOCK 4Q-9              
1 58322U 23174BU  25148.19539809  .00010596  00000+0  34123-3 0  9997
2 58322  97.4177 227.2254 0010522  89.0694 271.1753 15.32336458 86333
OBSERVER-1A             
1 58323U 23174BV  25148.84510381  .00009786  00000+0  35497-3 0  9998
2 58323  97.4264 226.6842 0011796  89.8873 270.3718 15.28478801 86312
PICO-01A003             
1 58326U 23174BY  25148.84292130  .00012457  00000+0  41680-3 0  9990
2 58326  97.4137 226.3078 0009755 101.9064 258.3271 15.31068746 86342
FLOCK 4Q-4              
1 58327U 23174BZ  25148.49533720  .00012465  00000+0  40013-3 0  9993
2 58327  97.4143 227.0984 0009862 105.7061 254.5270 15.32403739 86367
FLOCK 4Q-13             
1 58328U 23174CA  25148.18312640  .00013047  00000+0  39713-3 0  9998
2 58328  97.4260 227.8078 0010546 104.6552 255.5861 15.34080877 86345
FLOCK 4Q-21             
1 58329U 23174CB  25147.79258457  .00015641  00000+0  42660-3 0  9997
2 58329  97.4213 228.2113 0009410 107.5381 252.6892 15.37494360 86340
BRO-10                  
1 58331U 23174CD  25148.80039673  .00018748  00000+0  50045-3 0  9997
2 58331  97.4110 229.9105 0008446  70.8698 289.3460 15.38130752 86597
OUTPOST MISSION 2       
1 58334U 23174CG  25148.84271172  .00015854  00000+0  45921-3 0  9998
2 58334  97.4234 229.0611 0009980  76.2691 283.9663 15.35607927 86480
LEMUR-2-JK0903EM1407    
1 58336U 23174CJ  25147.97094610  .00012922  00000+0  38661-3 0  9999
2 58336  97.4162 227.7259 0008707  73.4953 286.7246 15.34645687 86360
LEMUR-2-MJR092620       
1 58340U 23174CN  25148.49135171  .00008812  00000+0  26304-3 0  9994
2 58340  97.4226 229.0244 0009224  70.6427 289.5812 15.34823309 86465
NINJASAT                
1 58341U 23174CP  25148.82584703  .00078367  00000+0  91290-3 0  9999
2 58341  97.4168 234.5593 0003409  69.2843 290.8780 15.61420234 86878
PEARL 1C                
1 58342U 23174CQ  25148.83460348  .00029854  00000+0  53416-3 0  9994
2 58342  97.4188 232.8984 0007045  52.5668 307.6223 15.49921579 86756
O3B MPOWER F5           
1 58346U 23175A   25148.51921184 -.00000022  00000+0  00000+0 0  9998
2 58346   0.0603 352.3164 0006398  59.4597 308.2814  5.00116815 30192
O3B MPOWER F6           
1 58347U 23175B   25148.41928945 -.00000022  00000+0  00000+0 0  9990
2 58347   0.0524 353.6283 0007640  72.1858 294.2657  5.00117170 29107
HAIYANG-3A              
1 58349U 23176A   25148.88435276  .00000138  00000+0  65016-4 0  9994
2 58349  98.5829 225.4242 0011140  80.7950 279.4494 14.34106605 80220
STARLINK-30907          
1 58352U 23177B   25148.57690365  .00000322  00000+0  38922-4 0  9998
2 58352  43.0036 101.1286 0001142 271.8936  88.1776 15.02534988 85414
